{"type": "FeatureCollection", "features": [{"type": "Feature", "properties": {"norad_id": 28054, "name": "DMSP 5D-3 F16 (USA 172)", "group": "weather", "lat": -37.42315773763831, "lon": 24.009695036299917, "alt_km": 847.2236776040472, "timestamp": "2025-12-25T11:37:44.064529+00:00", "meta": {"OBJECT_NAME": "DMSP 5D-3 F16 (USA 172)", "OBJECT_ID": "2003-048A", "EPOCH": "2025-12-25T01:56:29.816160", "MEAN_MOTION": 14.14428485, "ECCENTRICITY": 0.0006247, "INCLINATION": 99.0038, "RA_OF_ASC_NODE": 16.6344, "ARG_OF_PERICENTER": 281.2459, "MEAN_ANOMALY": 146.6763, "EPHEMERIS_TYPE": 0, "CLASSIFICATION_TYPE": "U", "NORAD_CAT_ID": 28054, "ELEMENT_SET_NO": 999, "REV_AT_EPOCH": 14487, "BSTAR": 8.012e-05, "MEAN_MOTION_DOT": 1.08e-06, "MEAN_MOTION_DDOT": 0}, "tle": {"line1": "1 28054U 03048A   25359.08090065  .00000108  00000+0  80120-4 0  9999", "line2": "2 28054  99.0038  16.6344 0006247 281.2459 146.6763 14.14428485144872"}}, "geometry": {"type": "Point", "coordinates": [24.009695036299917, -37.42315773763831]}}, {"type": "Feature", "properties": {"norad_id": 28912, "name": "METEOSAT-9 (MSG-2)", "group": "weather", "lat": -8.75282591004775, "lon": -47.00873808347089, "alt_km": 35512.91792381599, "timestamp": "2025-12-25T11:37:44.064579+00:00", "meta": {"OBJECT_NAME": "METEOSAT-9 (MSG-2)", "OBJECT_ID": "2005-049B", "EPOCH": "2025-12-24T18:27:10.310976", "MEAN_MOTION": 1.00268275, "ECCENTRICITY": 0.00719695, "INCLINATION": 8.9553, "RA_OF_ASC_NODE": 55.846, "ARG_OF_PERICENTER": 282.2974, "MEAN_ANOMALY": 77.0088, "EPHEMERIS_TYPE": 0, "CLASSIFICATION_TYPE": "U", "NORAD_CAT_ID": 28912, "ELEMENT_SET_NO": 999, "REV_AT_EPOCH": 524, "BSTAR": 0, "MEAN_MOTION_DOT": 1.45e-06, "MEAN_MOTION_DDOT": 0}, "tle": {"line1": "1 28912U 05049B   25358.76886934  .00000145  00000+0  00000+0 0  9992", "line2": "2 28912   8.9553  55.8460 0071969 282.2974  77.0088  1.00268275  5240"}}, "geometry": {"type": "Point", "coordinates": [-47.00873808347089, -8.75282591004775]}}, {"type": "Feature", "properties": {"norad_id": 29522, "name": "DMSP 5D-3 F17 (USA 191)", "group": "weather", "lat": -72.71544724879938, "lon": 34.23348880014417, "alt_km": 850.8423237549769, "timestamp": "2025-12-25T11:37:44.064597+00:00", "meta": {"OBJECT_NAME": "DMSP 5D-3 F17 (USA 191)", "OBJECT_ID": "2006-050A", "EPOCH": "2025-12-25T01:48:02.014848", "MEAN_MOTION": 14.14924681, "ECCENTRICITY": 0.0009935, "INCLINATION": 98.7392, "RA_OF_ASC_NODE": 4.2072, "ARG_OF_PERICENTER": 188.1231, "MEAN_ANOMALY": 171.9783, "EPHEMERIS_TYPE": 0, "CLASSIFICATION_TYPE": "U", "NORAD_CAT_ID": 29522, "ELEMENT_SET_NO": 999, "REV_AT_EPOCH": 98779, "BSTAR": 0.00010013, "MEAN_MOTION_DOT": 1.5e-06, "MEAN_MOTION_DDOT": 0}, "tle": {"line1": "1 29522U 06050A   25359.07502332  .00000150  00000+0  10013-3 0  9990", "line2": "2 29522  98.7392   4.2072 0009935 188.1231 171.9783 14.14924681987791"}}, "geometry": {"type": "Point", "coordinates": [34.23348880014417, -72.71544724879938]}}, {"type": "Feature", "properties": {"norad_id": 32958, "name": "FENGYUN 3A", "group": "weather", "lat": -29.006667852755783, "lon": 113.88995999339653, "alt_km": 830.0689927221702, "timestamp": "2025-12-25T11:37:44.064611+00:00", "meta": {"OBJECT_NAME": "FENGYUN 3A", "OBJECT_ID": "2008-026A", "EPOCH": "2025-12-24T19:25:13.141632", "MEAN_MOTION": 14.19518258, "ECCENTRICITY": 0.00076114, "INCLINATION": 98.6714, "RA_OF_ASC_NODE": 298.0827, "ARG_OF_PERICENTER": 271.2931, "MEAN_ANOMALY": 88.7373, "EPHEMERIS_TYPE": 0, "CLASSIFICATION_TYPE": "U", "NORAD_CAT_ID": 32958, "ELEMENT_SET_NO": 999, "REV_AT_EPOCH": 91066, "BSTAR": 7.9047687e-05, "MEAN_MOTION_DOT": 1.23e-06, "MEAN_MOTION_DDOT": 0}, "tle": {"line1": "1 32958U 08026A   25358.80917988  .00000123  00000+0  79048-4 0  9993", "line2": "2 32958  98.6714 298.0827 0007611 271.2931  88.7373 14.19518258910662"}}, "geometry": {"type": "Point", "coordinates": [113.88995999339653, -29.006667852755783]}}, {"type": "Feature", "properties": {"norad_id": 35491, "name": "GOES 14", "group": "weather", "lat": 1.13868819943579, "lon": 150.87538441867906, "alt_km": 35836.62373563218, "timestamp": "2025-12-25T11:37:44.064625+00:00", "meta": {"OBJECT_NAME": "GOES 14", "OBJECT_ID": "2009-033A", "EPOCH": "2025-12-24T22:48:45.258912", "MEAN_MOTION": 1.00097024, "ECCENTRICITY": 6.65e-05, "INCLINATION": 1.2336, "RA_OF_ASC_NODE": 85.2804, "ARG_OF_PERICENTER": 191.3569, "MEAN_ANOMALY": 41.8193, "EPHEMERIS_TYPE": 0, "CLASSIFICATION_TYPE": "U", "NORAD_CAT_ID": 35491, "ELEMENT_SET_NO": 999, "REV_AT_EPOCH": 484, "BSTAR": 0, "MEAN_MOTION_DOT": 3.6e-07, "MEAN_MOTION_DDOT": 0}, "tle": {"line1": "1 35491U 09033A   25358.95052383  .00000036  00000+0  00000+0 0  9992", "line2": "2 35491   1.2336  85.2804 0000665 191.3569  41.8193  1.00097024  4842"}}, "geometry": {"type": "Point", "coordinates": [150.87538441867906, 1.13868819943579]}}, {"type": "Feature", "properties": {"norad_id": 35951, "name": "DMSP 5D-3 F18 (USA 210)", "group": "weather", "lat": 33.704790540716616, "lon": 161.8116970524154, "alt_km": 844.6782883856176, "timestamp": "2025-12-25T11:37:44.064637+00:00", "meta": {"OBJECT_NAME": "DMSP 5D-3 F18 (USA 210)", "OBJECT_ID": "2009-057A", "EPOCH": "2025-12-25T02:27:23.698368", "MEAN_MOTION": 14.14777259, "ECCENTRICITY": 0.00117, "INCLINATION": 98.885, "RA_OF_ASC_NODE": 335.4421, "ARG_OF_PERICENTER": 30.0696, "MEAN_ANOMALY": 330.1146, "EPHEMERIS_TYPE": 0, "CLASSIFICATION_TYPE": "U", "NORAD_CAT_ID": 35951, "ELEMENT_SET_NO": 999, "REV_AT_EPOCH": 83497, "BSTAR": 0.00016468, "MEAN_MOTION_DOT": 2.73e-06, "MEAN_MOTION_DDOT": 0}, "tle": {"line1": "1 35951U 09057A   25359.10235762  .00000273  00000+0  16468-3 0  9993", "line2": "2 35951  98.8850 335.4421 0011700  30.0696 330.1146 14.14777259834974"}}, "geometry": {"type": "Point", "coordinates": [161.8116970524154, 33.704790540716616]}}, {"type": "Feature", "properties": {"norad_id": 36411, "name": "EWS-G2 (GOES 15)", "group": "weather", "lat": -0.7717895875946571, "lon": -29.92107807795522, "alt_km": 35776.30033243492, "timestamp": "2025-12-25T11:37:44.064650+00:00", "meta": {"OBJECT_NAME": "EWS-G2 (GOES 15)", "OBJECT_ID": "2010-008A", "EPOCH": "2025-12-24T23:39:47.870208", "MEAN_MOTION": 1.00271022, "ECCENTRICITY": 0.0005583, "INCLINATION": 0.8419, "RA_OF_ASC_NODE": 86.0741, "ARG_OF_PERICENTER": 179.0793, "MEAN_ANOMALY": 244.9011, "EPHEMERIS_TYPE": 0, "CLASSIFICATION_TYPE": "U", "NORAD_CAT_ID": 36411, "ELEMENT_SET_NO": 999, "REV_AT_EPOCH": 5789, "BSTAR": 0, "MEAN_MOTION_DOT": 5.9e-07, "MEAN_MOTION_DDOT": 0}, "tle": {"line1": "1 36411U 10008A   25358.98597072  .00000059  00000+0  00000+0 0  9996", "line2": "2 36411   0.8419  86.0741 0005583 179.0793 244.9011  1.00271022 57897"}}, "geometry": {"type": "Point", "coordinates": [-29.92107807795522, -0.7717895875946571]}}, {"type": "Feature", "properties": {"norad_id": 36744, "name": "COMS 1", "group": "weather", "lat": -2.859896352181493, "lon": 36.935976748317564, "alt_km": 35787.913372556955, "timestamp": "2025-12-25T11:37:44.064663+00:00", "meta": {"OBJECT_NAME": "COMS 1", "OBJECT_ID": "2010-032A", "EPOCH": "2025-12-24T22:38:51.746208", "MEAN_MOTION": 1.00270195, "ECCENTRICITY": 8.62e-05, "INCLINATION": 4.3676, "RA_OF_ASC_NODE": 77.8605, "ARG_OF_PERICENTER": 214.3795, "MEAN_ANOMALY": 269.3601, "EPHEMERIS_TYPE": 0, "CLASSIFICATION_TYPE": "U", "NORAD_CAT_ID": 36744, "ELEMENT_SET_NO": 999, "REV_AT_EPOCH": 4934, "BSTAR": 0, "MEAN_MOTION_DOT": -3.25e-06, "MEAN_MOTION_DDOT": 0}, "tle": {"line1": "1 36744U 10032A   25358.94365447 -.00000325  00000+0  00000+0 0  9994", "line2": "2 36744   4.3676  77.8605 0000862 214.3795 269.3601  1.00270195 49344"}}, "geometry": {"type": "Point", "coordinates": [36.935976748317564, -2.859896352181493]}}, {"type": "Feature", "properties": {"norad_id": 37214, "name": "FENGYUN 3B", "group": "weather", "lat": 66.97784945822538, "lon": -118.58136037555438, "alt_km": 849.9017847024561, "timestamp": "2025-12-25T11:37:44.064676+00:00", "meta": {"OBJECT_NAME": "FENGYUN 3B", "OBJECT_ID": "2010-059A", "EPOCH": "2025-12-25T04:43:15.592800", "MEAN_MOTION": 14.14793467, "ECCENTRICITY": 0.0021493, "INCLINATION": 98.9886, "RA_OF_ASC_NODE": 39.2599, "ARG_OF_PERICENTER": 321.9225, "MEAN_ANOMALY": 124.0227, "EPHEMERIS_TYPE": 0, "CLASSIFICATION_TYPE": "U", "NORAD_CAT_ID": 37214, "ELEMENT_SET_NO": 999, "REV_AT_EPOCH": 78282, "BSTAR": 0.00016183, "MEAN_MOTION_DOT": 2.67e-06, "MEAN_MOTION_DDOT": 0}, "tle": {"line1": "1 37214U 10059A   25359.19670825  .00000267  00000+0  16183-3 0  9990", "line2": "2 37214  98.9886  39.2599 0021493 321.9225 124.0227 14.14793467782828"}}, "geometry": {"type": "Point", "coordinates": [-118.58136037555438, 66.97784945822538]}}, {"type": "Feature", "properties": {"norad_id": 37849, "name": "SUOMI NPP", "group": "weather", "lat": 11.55364945597047, "lon": 118.52206183990138, "alt_km": 827.759770071284, "timestamp": "2025-12-25T11:37:44.064689+00:00", "meta": {"OBJECT_NAME": "SUOMI NPP", "OBJECT_ID": "2011-061A", "EPOCH": "2025-12-22T15:10:21.732672", "MEAN_MOTION": 14.19516903, "ECCENTRICITY": 0.00024883, "INCLINATION": 98.7787, "RA_OF_ASC_NODE": 293.8852, "ARG_OF_PERICENTER": 103.0781, "MEAN_ANOMALY": 257.0673, "EPHEMERIS_TYPE": 0, "CLASSIFICATION_TYPE": "U", "NORAD_CAT_ID": 37849, "ELEMENT_SET_NO": 999, "REV_AT_EPOCH": 73339, "BSTAR": 6.3406935e-05, "MEAN_MOTION_DOT": 8.9e-07, "MEAN_MOTION_DDOT": 0}, "tle": {"line1": "1 37849U 11061A   25356.63219598  .00000089  00000+0  63407-4 0  9994", "line2": "2 37849  98.7787 293.8852 0002488 103.0781 257.0673 14.19516903733392"}}, "geometry": {"type": "Point", "coordinates": [118.52206183990138, 11.55364945597047]}}]}